QIANFAN-49              
1 62250U 24232P   25333.80487872  .00000140  00000+0  19794-3 0  9995
2 62250  89.0039  42.5395 0013126 225.6406 134.3670 13.50975069 66092
QIANFAN-50              
1 62251U 24232Q   25333.75549441  .00000149  00000+0  21181-3 0  9993
2 62251  89.0045  42.5519 0014731 228.0229 131.9668 13.50976587 66110
QIANFAN-51              
1 62252U 24232R   25333.81311194  .00000139  00000+0  19718-3 0  9995
2 62252  89.0038  42.5408 0012123 230.6629 129.3449 13.50974766 66111
QIANFAN-52              
1 62253U 24232S   25333.84190139  .00000137  00000+0  19304-3 0  9992
2 62253  89.0035  42.4120 0014355 223.2188 136.7838 13.50980230 66203
QIANFAN-53              
1 62254U 24232T   25333.82133347  .00000150  00000+0  21327-3 0  9992
2 62254  89.0042  42.5176 0013202 223.9106 136.0997 13.50975344 66165
QIANFAN-54              
1 62255U 24232U   25333.78845556  .00000136  00000+0  19177-3 0  9994
2 62255  89.0033  42.2006 0000480 204.9783 155.1345 13.50975462 97668
QIANFAN-55              
1 62785U 25016A   25333.81464970  .00000120  00000+0  16731-3 0  9990
2 62785  88.9771 104.5425 0017762  31.0427 329.1770 13.50983011 45448
QIANFAN-56              
1 62786U 25016B   25333.83097597  .00000120  00000+0  16727-3 0  9995
2 62786  88.9745 104.3808 0016480  33.7642 326.4555 13.50974132 45497
